CCSDS_OMM_VERS = 2.0
CREATION_DATE  = 
ORIGINATOR     = 

OBJECT_NAME    = STARLINK-34698
OBJECT_ID      = 2025-259Z
CENTER_NAME    = EARTH
REF_FRAME      = TEME
TIME_SYSTEM    = UTC
MEAN_ELEMENT_THEORY = SGP/SGP4

EPOCH          = 2025-12-02T04:00:03.998880
MEAN_MOTION    = 15.50474527
ECCENTRICITY   = .0001537
INCLINATION    = 42.9999
RA_OF_ASC_NODE = 109.0739
ARG_OF_PERICENTER = 256.4590
MEAN_ANOMALY   = 353.1920

EPHEMERIS_TYPE = 0
CLASSIFICATION_TYPE = U
NORAD_CAT_ID   = 66445
ELEMENT_SET_NO = 999
REV_AT_EPOCH   = 447
BSTAR          = .12089E-2
MEAN_MOTION_DOT = .70958E-3
MEAN_MOTION_DDOT = 0

CCSDS_OMM_VERS = 2.0
CREATION_DATE  = 
ORIGINATOR     = 

OBJECT_NAME    = STARLINK-34986
OBJECT_ID      = 2025-259AA
CENTER_NAME    = EARTH
REF_FRAME      = TEME
TIME_SYSTEM    = UTC
MEAN_ELEMENT_THEORY = SGP/SGP4

EPOCH          = 2025-12-02T04:00:03.998880
MEAN_MOTION    = 15.50468408
ECCENTRICITY   = .0001573
INCLINATION    = 42.9999
RA_OF_ASC_NODE = 109.0685
ARG_OF_PERICENTER = 255.7364
MEAN_ANOMALY   = 355.8252

EPHEMERIS_TYPE = 0
CLASSIFICATION_TYPE = U
NORAD_CAT_ID   = 66446
ELEMENT_SET_NO = 999
REV_AT_EPOCH   = 458
BSTAR          = .13969E-2
MEAN_MOTION_DOT = .8215E-3
MEAN_MOTION_DDOT = 0

CCSDS_OMM_VERS = 2.0
CREATION_DATE  = 
ORIGINATOR     = 

OBJECT_NAME    = STARLINK-34851
OBJECT_ID      = 2025-259AB
CENTER_NAME    = EARTH
REF_FRAME      = TEME
TIME_SYSTEM    = UTC
MEAN_ELEMENT_THEORY = SGP/SGP4

EPOCH          = 2025-12-02T04:00:03.998880
MEAN_MOTION    = 15.50571925
ECCENTRICITY   = .0001979
INCLINATION    = 42.9999
RA_OF_ASC_NODE = 109.0603
ARG_OF_PERICENTER = 265.8639
MEAN_ANOMALY   = 349.5548

EPHEMERIS_TYPE = 0
CLASSIFICATION_TYPE = U
NORAD_CAT_ID   = 66447
ELEMENT_SET_NO = 999
REV_AT_EPOCH   = 447
BSTAR          = -.63307E-3
MEAN_MOTION_DOT = -.37297E-3
MEAN_MOTION_DDOT = 0

CCSDS_OMM_VERS = 2.0
CREATION_DATE  = 
ORIGINATOR     = 

OBJECT_NAME    = STARLINK-35355
OBJECT_ID      = 2025-259AC
CENTER_NAME    = EARTH
REF_FRAME      = TEME
TIME_SYSTEM    = UTC
MEAN_ELEMENT_THEORY = SGP/SGP4

EPOCH          = 2025-12-02T04:00:03.998880
MEAN_MOTION    = 15.50458757
ECCENTRICITY   = .0001617
INCLINATION    = 42.9999
RA_OF_ASC_NODE = 109.0554
ARG_OF_PERICENTER = 255.6660
MEAN_ANOMALY   = 1.6461

EPHEMERIS_TYPE = 0
CLASSIFICATION_TYPE = U
NORAD_CAT_ID   = 66448
ELEMENT_SET_NO = 999
REV_AT_EPOCH   = 458
BSTAR          = .1736E-2
MEAN_MOTION_DOT = .102406E-2
MEAN_MOTION_DDOT = 0

CCSDS_OMM_VERS = 2.0
CREATION_DATE  = 
ORIGINATOR     = 

OBJECT_NAME    = STARLINK-34720
OBJECT_ID      = 2025-259AD
CENTER_NAME    = EARTH
REF_FRAME      = TEME
TIME_SYSTEM    = UTC
MEAN_ELEMENT_THEORY = SGP/SGP4

EPOCH          = 2025-12-02T04:00:03.998880
MEAN_MOTION    = 15.50460030
ECCENTRICITY   = .0001548
INCLINATION    = 42.9999
RA_OF_ASC_NODE = 109.0502
ARG_OF_PERICENTER = 249.3599
MEAN_ANOMALY   = 9.8667

EPHEMERIS_TYPE = 0
CLASSIFICATION_TYPE = U
NORAD_CAT_ID   = 66449
ELEMENT_SET_NO = 999
REV_AT_EPOCH   = 447
BSTAR          = .17284E-2
MEAN_MOTION_DOT = .10195E-2
MEAN_MOTION_DDOT = 0

CCSDS_OMM_VERS = 2.0
CREATION_DATE  = 
ORIGINATOR     = 

OBJECT_NAME    = STARLINK-35334
OBJECT_ID      = 2025-259AE
CENTER_NAME    = EARTH
REF_FRAME      = TEME
TIME_SYSTEM    = UTC
MEAN_ELEMENT_THEORY = SGP/SGP4

EPOCH          = 2025-12-02T04:00:03.998880
MEAN_MOTION    = 15.50464660
ECCENTRICITY   = .0001568
INCLINATION    = 42.9998
RA_OF_ASC_NODE = 109.0444
ARG_OF_PERICENTER = 247.0797
MEAN_ANOMALY   = 14.0578

EPHEMERIS_TYPE = 0
CLASSIFICATION_TYPE = U
NORAD_CAT_ID   = 66450
ELEMENT_SET_NO = 999
REV_AT_EPOCH   = 458
BSTAR          = .16104E-2
MEAN_MOTION_DOT = .94897E-3
MEAN_MOTION_DDOT = 0

CCSDS_OMM_VERS = 2.0
CREATION_DATE  = 
ORIGINATOR     = 

OBJECT_NAME    = VIASAT-3 F2
OBJECT_ID      = 2025-261A
CENTER_NAME    = EARTH
REF_FRAME      = TEME
TIME_SYSTEM    = UTC
MEAN_ELEMENT_THEORY = SGP/SGP4

EPOCH          = 2025-11-26T17:55:45.153696
MEAN_MOTION    = 2.28187844
ECCENTRICITY   = .23413249
INCLINATION    = 5.5832
RA_OF_ASC_NODE = 293.8608
ARG_OF_PERICENTER = 182.7714
MEAN_ANOMALY   = 334.4159

EPHEMERIS_TYPE = 0
CLASSIFICATION_TYPE = U
NORAD_CAT_ID   = 66454
ELEMENT_SET_NO = 999
REV_AT_EPOCH   = 28
BSTAR          = 0
MEAN_MOTION_DOT = -.51E-6
MEAN_MOTION_DDOT = 0

CCSDS_OMM_VERS = 2.0
CREATION_DATE  = 
ORIGINATOR     = 

OBJECT_NAME    = ATLAS 5 CENTAUR R/B
OBJECT_ID      = 2025-261B
CENTER_NAME    = EARTH
REF_FRAME      = TEME
TIME_SYSTEM    = UTC
MEAN_ELEMENT_THEORY = SGP/SGP4

EPOCH          = 2025-12-01T09:05:22.267680
MEAN_MOTION    = 2.28259456
ECCENTRICITY   = .2329758
INCLINATION    = 6.1608
RA_OF_ASC_NODE = 292.7524
ARG_OF_PERICENTER = 184.1992
MEAN_ANOMALY   = 169.0341

EPHEMERIS_TYPE = 0
CLASSIFICATION_TYPE = U
NORAD_CAT_ID   = 66455
ELEMENT_SET_NO = 999
REV_AT_EPOCH   = 38
BSTAR          = 0
MEAN_MOTION_DOT = -.46E-6
MEAN_MOTION_DDOT = 0

CCSDS_OMM_VERS = 2.0
CREATION_DATE  = 
ORIGINATOR     = 

OBJECT_NAME    = STARLINK-35643
OBJECT_ID      = 2025-262A
CENTER_NAME    = EARTH
REF_FRAME      = TEME
TIME_SYSTEM    = UTC
MEAN_ELEMENT_THEORY = SGP/SGP4

EPOCH          = 2025-12-02T04:00:03.998880
MEAN_MOTION    = 15.65842537
ECCENTRICITY   = .0001396
INCLINATION    = 42.9997
RA_OF_ASC_NODE = 133.1845
ARG_OF_PERICENTER = 267.6857
MEAN_ANOMALY   = 300.0370

EPHEMERIS_TYPE = 0
CLASSIFICATION_TYPE = U
NORAD_CAT_ID   = 66456
ELEMENT_SET_NO = 999
REV_AT_EPOCH   = 393
BSTAR          = -.23472E-1
MEAN_MOTION_DOT = -.2137333E-1
MEAN_MOTION_DDOT = 0

CCSDS_OMM_VERS = 2.0
CREATION_DATE  = 
ORIGINATOR     = 

OBJECT_NAME    = STARLINK-35466
OBJECT_ID      = 2025-262B
CENTER_NAME    = EARTH
REF_FRAME      = TEME
TIME_SYSTEM    = UTC
MEAN_ELEMENT_THEORY = SGP/SGP4

EPOCH          = 2025-12-02T04:00:03.998880
MEAN_MOTION    = 15.65838988
ECCENTRICITY   = .000144
INCLINATION    = 42.9994
RA_OF_ASC_NODE = 133.1750
ARG_OF_PERICENTER = 271.5786
MEAN_ANOMALY   = 299.9786

EPHEMERIS_TYPE = 0
CLASSIFICATION_TYPE = U
NORAD_CAT_ID   = 66457
ELEMENT_SET_NO = 999
REV_AT_EPOCH   = 393
BSTAR          = -.23422E-1
MEAN_MOTION_DOT = -.2133157E-1
MEAN_MOTION_DDOT = 0

CCSDS_OMM_VERS = 2.0
CREATION_DATE  = 
ORIGINATOR     = 

OBJECT_NAME    = STARLINK-35684
OBJECT_ID      = 2025-262C
CENTER_NAME    = EARTH
REF_FRAME      = TEME
TIME_SYSTEM    = UTC
MEAN_ELEMENT_THEORY = SGP/SGP4

EPOCH          = 2025-12-02T04:00:03.998880
MEAN_MOTION    = 15.65843493
ECCENTRICITY   = .00015
INCLINATION    = 42.9996
RA_OF_ASC_NODE = 133.1793
ARG_OF_PERICENTER = 269.9389
MEAN_ANOMALY   = 299.6981

EPHEMERIS_TYPE = 0
CLASSIFICATION_TYPE = U
NORAD_CAT_ID   = 66458
ELEMENT_SET_NO = 999
REV_AT_EPOCH   = 393
BSTAR          = -.23476E-1
MEAN_MOTION_DOT = -.2137816E-1
MEAN_MOTION_DDOT = 0

CCSDS_OMM_VERS = 2.0
CREATION_DATE  = 
ORIGINATOR     = 

OBJECT_NAME    = STARLINK-35449
OBJECT_ID      = 2025-262D
CENTER_NAME    = EARTH
REF_FRAME      = TEME
TIME_SYSTEM    = UTC
MEAN_ELEMENT_THEORY = SGP/SGP4

EPOCH          = 2025-12-02T04:00:03.998880
MEAN_MOTION    = 15.65843489
ECCENTRICITY   = .0001409
INCLINATION    = 42.9996
RA_OF_ASC_NODE = 133.1696
ARG_OF_PERICENTER = 267.7400
MEAN_ANOMALY   = 305.7321

EPHEMERIS_TYPE = 0
CLASSIFICATION_TYPE = U
NORAD_CAT_ID   = 66459
ELEMENT_SET_NO = 999
REV_AT_EPOCH   = 393
BSTAR          = -.23476E-1
MEAN_MOTION_DOT = -.2137722E-1
MEAN_MOTION_DDOT = 0

