STARLINK-34698          
1 66445U 25259Z   25336.16671295  .00070958  00000+0  12089-2 0  9994
2 66445  42.9999 109.0739 0001537 256.4590 353.1920 15.50474527  4473
STARLINK-34986          
1 66446U 25259AA  25336.16671295  .00082150  00000+0  13969-2 0  9990
2 66446  42.9999 109.0685 0001573 255.7364 355.8252 15.50468408  4585
STARLINK-34851          
1 66447U 25259AB  25336.16671295 -.00037297  00000+0 -63307-3 0  9997
2 66447  42.9999 109.0603 0001979 265.8639 349.5548 15.50571925  4478
STARLINK-35355          
1 66448U 25259AC  25336.16671295  .00102406  00000+0  17360-2 0  9998
2 66448  42.9999 109.0554 0001617 255.6660   1.6461 15.50458757  4583
STARLINK-34720          
1 66449U 25259AD  25336.16671295  .00101950  00000+0  17284-2 0  9997
2 66449  42.9999 109.0502 0001548 249.3599   9.8667 15.50460030  4474
STARLINK-35334          
1 66450U 25259AE  25336.16671295  .00094897  00000+0  16104-2 0  9990
2 66450  42.9998 109.0444 0001568 247.0797  14.0578 15.50464660  4581
VIASAT-3 F2             
1 66454U 25261A   25330.74705039 -.00000051  00000+0  00000+0 0  9994
2 66454   5.5832 293.8608 2341324 182.7714 334.4159  2.28187844   288
ATLAS 5 CENTAUR R/B     
1 66455U 25261B   25335.37872995 -.00000046  00000+0  00000+0 0  9999
2 66455   6.1608 292.7524 2329758 184.1992 169.0341  2.28259456   388
STARLINK-35643          
1 66456U 25262A   25336.16671295 -.02137333  00000+0 -23472-1 0  9992
2 66456  42.9997 133.1845 0001396 267.6857 300.0370 15.65842537  3938
STARLINK-35466          
1 66457U 25262B   25336.16671295 -.02133157  00000+0 -23422-1 0  9998
2 66457  42.9994 133.1750 0001440 271.5786 299.9786 15.65838988  3938
STARLINK-35684          
1 66458U 25262C   25336.16671295 -.02137816  00000+0 -23476-1 0  9994
2 66458  42.9996 133.1793 0001500 269.9389 299.6981 15.65843493  3936
STARLINK-35449          
1 66459U 25262D   25336.16671295 -.02137722  00000+0 -23476-1 0  9991
2 66459  42.9996 133.1696 0001409 267.7400 305.7321 15.65843489  3939
